<?xml version="1.0" encoding="UTF-8"?>
<gpx version="1.1" creator="onX Hunt" xmlns="http://www.topografix.com/GPX/1/1">
  <metadata><name>Anson sample onX export</name></metadata>
  <wpt lat="35.080570" lon="-80.193484">
    <name>Upper Food Plot</name>
  </wpt>
  <wpt lat="35.08190" lon="-80.19520">
    <name>OnX Ridge Cam</name>
  </wpt>
  <wpt lat="35.07720" lon="-80.19210">
    <name>OnX Staging Oak</name>
  </wpt>
  <trk>
    <name>Hidden Access — west ditch</name>
    <trkseg>
      <trkpt lat="35.07420" lon="-80.19780"></trkpt>
      <trkpt lat="35.07580" lon="-80.19690"></trkpt>
      <trkpt lat="35.07740" lon="-80.19610"></trkpt>
      <trkpt lat="35.07910" lon="-80.19540"></trkpt>
    </trkseg>
  </trk>
</gpx>
